STARLINK-32184          
1 60942U 24155U   26068.45869868 -.00002923  00000+0 -86684-4 0  9997
2 60942  53.1599 130.8751 0000992  67.7239 292.3867 15.30171337 86253
2025-313BC              
1 67298U 25313BC  26068.18968176  .00075331  00000+0  26410-2 0  9997
2 67298  97.3985 144.8110 0008478 328.9209  31.1528 15.29126358  7890
